NORAD_CAT_ID,OBJECT_NAME,OBJECT_TYPE,EPOCH,MEAN_MOTION,ECCENTRICITY,INCLINATION,RA_OF_ASC_NODE,ARG_OF_PERICENTER,MEAN_ANOMALY,BSTAR,MEAN_MOTION_DOT,MEAN_MOTION_DDOT,TLE_LINE0,TLE_LINE1,TLE_LINE2,SEMIMAJOR_AXIS,PERIOD,APOGEE,PERIGEE,DECAYED
56780.0,STARLINK-5963,PAYLOAD,2024-03-11 14:10:34,14.98325652,0.0003035,70.0014,20.4433,270.6777,89.4034,-1.4809e-05,-2.7e-06,0.0,0 STARLINK-5963,1 56780U 23078P   24071.59068185 -.00000270  00000-0 -14809-4 0  9999,2 56780  70.0014  20.4433 0003035 270.6777  89.4034 14.98325652 43610,6950.206,96.107,574.181,569.962,0.0
56780.0,STARLINK-5963,PAYLOAD,2024-03-12 04:35:47,14.98332357,0.0002967,70.0014,18.9285,273.8534,86.2286,-7.7383e-05,-1.016e-05,0.0,0 STARLINK-5963,1 56780U 23078P   24072.19152040 -.00001016  00000-0 -77383-4 0  9995,2 56780  70.0014  18.9285 0002967 273.8534  86.2286 14.98332357 43968,6950.186,96.107,574.113,569.988,0.0
56780.0,STARLINK-5963,PAYLOAD,2024-03-12 14:12:35,14.98332198,0.0002845,70.0017,17.9181,273.4201,86.6633,-5.4922e-06,-1.58e-06,0.0,0 STARLINK-5963,1 56780U 23078P   24072.59207799 -.00000158  00000-0 -54922-5 0  9992,2 56780  70.0017  17.9181 0002845 273.4201  86.6633 14.98332198 43768,6950.186,96.107,574.028,570.074,0.0
56780.0,STARLINK-5963,PAYLOAD,2024-03-13 06:13:55,14.98334081,0.0002872,70.0014,16.2352,272.3405,87.7425,0.00010861,1.203e-05,0.0,0 STARLINK-5963,1 56780U 23078P   24073.25967278  .00001203  00000-0  10861-3 0  9993,2 56780  70.0014  16.2352 0002872 272.3405  87.7425 14.98334081 44126,6950.18,96.107,574.041,570.049,0.0
56780.0,STARLINK-5963,PAYLOAD,2024-03-13 22:15:16,14.98328584,0.0002784,70.0017,14.552,272.695,87.3891,6.7072e-06,-1.3e-07,0.0,0 STARLINK-5963,1 56780U 23078P   24073.92727887 -.00000013  00000-0  67072-5 0  9994,2 56780  70.0017  14.5520 0002784 272.6950  87.3891 14.98328584 43962,6950.197,96.107,573.997,570.127,0.0
56780.0,STARLINK-5963,PAYLOAD,2024-03-14 04:39:48,14.98332265,0.0002748,70.0017,13.8786,273.5461,86.5384,3.4276e-05,3.16e-06,0.0,0 STARLINK-5963,1 56780U 23078P   24074.19431582  .00000316  00000-0  34276-4 0  9992,2 56780  70.0017  13.8786 0002748 273.5461  86.5384 14.98332265 44268,6950.186,96.107,573.961,570.141,0.0
56780.0,STARLINK-5963,PAYLOAD,2024-03-14 22:17:17,14.98336972,0.0002581,70.0019,12.0289,273.4711,86.6153,-0.00018417,-2.29e-05,0.0,0 STARLINK-5963,1 56780U 23078P   24074.92867813 -.00002290  00000-0 -18417-3 0  9996,2 56780  70.0019  12.0289 0002581 273.4711  86.6153 14.98336972 44119,6950.171,96.107,573.83,570.242,0.0
56780.0,STARLINK-5963,PAYLOAD,2024-03-15 04:41:50,14.98329601,0.000253,70.0023,11.356,257.1988,102.8888,-9.4502e-05,-1.22e-05,0.0,0 STARLINK-5963,1 56780U 23078P   24075.19572002 -.00001220  00000-0 -94502-4 0  9991,2 56780  70.0023  11.3560 0002530 257.1988 102.8888 14.98329601 44417,6950.194,96.107,573.818,570.301,0.0
56780.0,STARLINK-5963,PAYLOAD,2024-03-15 22:19:18,14.98330811,0.0002635,70.0019,9.5038,256.018,104.0687,-5.2207e-07,-9.9e-07,0.0,0 STARLINK-5963,1 56780U 23078P   24075.93007624 -.00000099  00000-0 -52207-6 0  9997,2 56780  70.0019   9.5038 0002635 256.0180 104.0687 14.98330811 44268,6950.19,96.107,573.887,570.224,0.0
56780.0,STARLINK-5963,PAYLOAD,2024-03-16 04:43:50,14.98331519,0.0002615,70.0021,8.8308,253.4054,106.6818,9.8202e-06,2.4e-07,0.0,0 STARLINK-5963,1 56780U 23078P   24076.19711524  .00000024  00000-0  98202-5 0  9997,2 56780  70.0021   8.8308 0002615 253.4054 106.6818 14.98331519 44565,6950.188,96.107,573.871,570.236,0.0
56780.0,STARLINK-5963,PAYLOAD,2024-03-16 22:21:19,14.98329429,0.0002695,70.002,6.9796,251.4388,108.6478,4.788e-05,4.78e-06,0.0,0 STARLINK-5963,1 56780U 23078P   24076.93147524  .00000478  00000-0  47880-4 0  9990,2 56780  70.0020   6.9796 0002695 251.4388 108.6478 14.98329429 44415,6950.195,96.107,573.933,570.187,0.0
56780.0,STARLINK-5963,PAYLOAD,2024-03-17 04:45:51,14.98329626,0.0002741,70.0016,6.3051,260.3133,99.7717,4.3964e-05,4.32e-06,0.0,0 STARLINK-5963,1 56780U 23078P   24077.19851562  .00000432  00000-0  43964-4 0  9992,2 56780  70.0016   6.3051 0002741 260.3133  99.7717 14.98329626 44715,6950.194,96.107,573.964,570.154,0.0
56780.0,STARLINK-5963,PAYLOAD,2024-03-17 22:23:20,14.98318972,0.0003314,70.0019,4.4556,275.148,84.93,-0.00016553,-2.067e-05,0.0,0 STARLINK-5963,1 56780U 23078P   24077.93287619 -.00002067  00000-0 -16553-3 0  9991,2 56780  70.0019   4.4556 0003314 275.1480  84.9300 14.98318972 44562,6950.227,96.108,574.395,569.789,0.0
56780.0,STARLINK-5963,PAYLOAD,2024-03-18 04:47:52,14.9831967,0.0002707,70.0018,3.781,258.1248,101.9608,-0.00016716,-2.086e-05,0.0,0 STARLINK-5963,1 56780U 23078P   24078.19991593 -.00002086  00000-0 -16716-3 0  9995,2 56780  70.0018   3.7810 0002707 258.1248 101.9608 14.98319670 44864,6950.225,96.108,573.971,570.208,0.0
56780.0,STARLINK-5963,PAYLOAD,2024-03-18 22:25:21,14.98320678,0.0002931,70.0014,1.9291,262.4865,97.5961,-0.00014843,-1.863e-05,0.0,0 STARLINK-5963,1 56780U 23078P   24078.93427736 -.00001863  00000-0 -14843-3 0  9991,2 56780  70.0014   1.9291 0002931 262.4865  97.5961 14.98320678 44711,6950.222,96.108,574.124,570.05,0.0
56780.0,STARLINK-5963,PAYLOAD,2024-03-19 01:37:37,14.98324238,0.0002873,70.0012,1.5915,262.7441,97.3391,-0.0001206,-1.531e-05,0.0,0 STARLINK-5963,1 56780U 23078P   24079.06779501 -.00001531  00000-0 -12060-3 0  9997,2 56780  70.0012   1.5915 0002873 262.7441  97.3391 14.98324238 44997,6950.211,96.107,574.073,570.079,0.0
56780.0,STARLINK-5963,PAYLOAD,2024-03-19 04:49:53,14.98328321,0.0002748,70.0017,1.2558,259.8382,100.2467,-6.3531e-05,-8.51e-06,0.0,0 STARLINK-5963,1 56780U 23078P   24079.20131090 -.00000851  00000-0 -63531-4 0  9992,2 56780  70.0017   1.2558 0002748 259.8382 100.2467 14.98328321 44753,6950.198,96.107,573.973,570.153,0.0
56780.0,STARLINK-5963,PAYLOAD,2024-03-20 01:39:38,14.98311754,0.000257,70.0019,359.0672,261.9786,98.1081,9.7105e-05,1.065e-05,0.0,0 STARLINK-5963,1 56780U 23078P   24080.06919769  .00001065  00000-0  97105-4 0  9995,2 56780  70.0019 359.0672 0002570 261.9786  98.1081 14.98311754 45144,6950.249,96.108,573.901,570.328,0.0
56780.0,STARLINK-5963,PAYLOAD,2024-03-20 04:51:54,14.9831367,0.0002561,70.0019,358.7304,261.709,98.3779,0.00011427,1.27e-05,0.0,0 STARLINK-5963,1 56780U 23078P   24080.20271752  .00001270  00000-0  11427-3 0  9994,2 56780  70.0019 358.7304 0002561 261.7090  98.3779 14.98313670 44906,6950.243,96.108,573.888,570.328,0.0
56780.0,STARLINK-5963,PAYLOAD,2024-03-20 20:53:15,14.98326691,0.0002619,70.0018,357.0473,262.8568,97.2293,7.6155e-05,8.16e-06,0.0,0 STARLINK-5963,1 56780U 23078P   24080.87031504  .00000816  00000-0  76155-4 0  9991,2 56780  70.0018 357.0473 0002619 262.8568  97.2293 14.98326691 45266,6950.203,96.107,573.888,570.248,0.0
56780.0,STARLINK-5963,PAYLOAD,2024-03-20 22:29:23,14.98326558,0.0002627,70.0018,356.8789,262.8409,97.2451,7.2772e-05,7.75e-06,0.0,0 STARLINK-5963,1 56780U 23078P   24080.93707539  .00000775  00000-0  72772-4 0  9991,2 56780  70.0018 356.8789 0002627 262.8409  97.2451 14.98326558 45017,6950.204,96.107,573.894,570.243,0.0
56780.0,STARLINK-5963,PAYLOAD,2024-03-21 11:18:28,14.98315333,0.0003205,70.0021,355.5331,264.4246,95.6547,-7.3992e-05,-9.75e-06,0.0,0 STARLINK-5963,1 56780U 23078P   24081.47116690 -.00000975  00000-0 -73992-4 0  9992,2 56780  70.0021 355.5331 0003205 264.4246  95.6547 14.98315333 45354,6950.238,96.108,574.331,569.876,0.0
56780.0,STARLINK-5963,PAYLOAD,2024-03-21 22:31:24,14.98325917,0.0002856,70.0014,354.3548,268.3297,91.7535,7.2716e-05,7.75e-06,0.0,0 STARLINK-5963,1 56780U 23078P   24081.93848027  .00000775  00000-0  72716-4 0  9998,2 56780  70.0014 354.3548 0002856 268.3297  91.7535 14.98325917 45165,6950.206,96.107,574.055,570.086,0.0
56780.0,STARLINK-5963,PAYLOAD,2024-03-22 03:19:48,14.98335248,0.0002909,70.0007,353.8483,269.7459,90.3367,0.00017666,2.016e-05,0.0,0 STARLINK-5963,1 56780U 23078P   24082.13875134  .00002016  00000-0  17666-3 0  9992,2 56780  70.0007 353.8483 0002909 269.7459  90.3367 14.98335248 45451,6950.177,96.107,574.063,570.02,0.0
56780.0,STARLINK-5963,PAYLOAD,2024-03-22 04:55:56,14.9833254,0.0002615,70.0017,353.6809,253.0406,107.0467,0.00014255,1.608e-05,0.0,0 STARLINK-5963,1 56780U 23078P   24082.20551318  .00001608  00000-0  14255-3 0  9992,2 56780  70.0017 353.6809 0002615 253.0406 107.0467 14.98332540 45206,6950.185,96.107,573.868,570.233,0.0
56780.0,STARLINK-5963,PAYLOAD,2024-03-22 22:33:25,14.98330342,0.0002651,70.0019,351.8296,245.34,114.7483,5.1615e-06,-3.1e-07,0.0,0 STARLINK-5963,1 56780U 23078P   24082.93987672 -.00000031  00000-0  51615-5 0  9991,2 56780  70.0019 351.8296 0002651 245.3400 114.7483 14.98330342 45319,6950.192,96.107,573.899,570.214,0.0
56780.0,STARLINK-5963,PAYLOAD,2024-03-23 03:21:49,14.98336452,0.0003002,70.001,351.3247,263.7082,96.3736,-5.5e-06,-1.59e-06,0.0,0 STARLINK-5963,1 56780U 23078P   24083.14015421 -.00000159  00000-0 -55000-5 0  9993,2 56780  70.0010 351.3247 0003002 263.7082  96.3736 14.98336452 45608,6950.173,96.107,574.124,569.951,0.0
56780.0,STARLINK-5963,PAYLOAD,2024-03-23 22:35:25,14.98334352,0.0002957,70.0014,349.3054,269.8746,90.2074,8.2622e-05,8.93e-06,0.0,0 STARLINK-5963,1 56780U 23078P   24083.94127263  .00000893  00000-0  82622-4 0  9991,2 56780  70.0014 349.3054 0002957 269.8746  90.2074 14.98334352 45466,6950.179,96.107,574.1,569.989,0.0
56780.0,STARLINK-5963,PAYLOAD,2024-03-24 03:23:48,14.98350427,0.0002998,70.0004,348.799,269.1187,90.9628,0.00017594,2.008e-05,0.0,0 STARLINK-5963,1 56780U 23078P   24084.14153804  .00002008  00000-0  17594-3 0  9999,2 56780  70.0004 348.7990 0002998 269.1187  90.9628 14.98350427 45759,6950.13,96.106,574.078,569.911,0.0
56780.0,STARLINK-5963,PAYLOAD,2024-03-24 11:24:30,14.9833104,0.0002651,70.0023,347.9584,258.5904,101.4957,-4.2075e-05,-5.95e-06,0.0,0 STARLINK-5963,1 56780U 23078P   24084.47535414 -.00000595  00000-0 -42075-4 0  9990,2 56780  70.0023 347.9584 0002651 258.5904 101.4957 14.98331040 45804,6950.19,96.107,573.897,570.212,0.0
